{
  "links" : {
    "next" : "https://api.nasa.gov/neo/rest/v1/feed?start_date=2010-01-09&end_date=2010-01-09&detailed=true&api_key=t0TVs3DtDT2H8Oy2Zy8m2eVrNsAVKAexjcZXUckd",
    "prev" : "https://api.nasa.gov/neo/rest/v1/feed?start_date=2010-01-07&end_date=2010-01-07&detailed=true&api_key=t0TVs3DtDT2H8Oy2Zy8m2eVrNsAVKAexjcZXUckd",
    "self" : "https://api.nasa.gov/neo/rest/v1/feed?start_date=2010-01-08&end_date=2010-01-08&detailed=true&api_key=t0TVs3DtDT2H8Oy2Zy8m2eVrNsAVKAexjcZXUckd"
  },
  "element_count" : 4,
  "near_earth_objects" : {
    "2010-01-08" : [ {
      "links" : {
        "self" : "https://api.nasa.gov/neo/rest/v1/neo/2438908?api_key=t0TVs3DtDT2H8Oy2Zy8m2eVrNsAVKAexjcZXUckd"
      },
      "neo_reference_id" : "2438908",
      "name" : "438908 (2009 XO)",
      "nasa_jpl_url" : "http://ssd.jpl.nasa.gov/sbdb.cgi?sstr=2438908",
      "absolute_magnitude_h" : 20.5,
      "estimated_diameter" : {
        "kilometers" : {
          "estimated_diameter_min" : 0.2111324448,
          "estimated_diameter_max" : 0.4721064988
        },
        "meters" : {
          "estimated_diameter_min" : 211.1324447897,
          "estimated_diameter_max" : 472.1064988055
        },
        "miles" : {
          "estimated_diameter_min" : 0.1311915784,
          "estimated_diameter_max" : 0.2933532873
        },
        "feet" : {
          "estimated_diameter_min" : 692.6917701639,
          "estimated_diameter_max" : 1548.9058855411
        }
      },
      "is_potentially_hazardous_asteroid" : true,
      "close_approach_data" : [ {
        "close_approach_date" : "2010-01-08",
        "epoch_date_close_approach" : 1262937600000,
        "relative_velocity" : {
          "kilometers_per_second" : "14.6305339878",
          "kilometers_per_hour" : "52669.9223561336",
          "miles_per_hour" : "32727.0414773432"
        },
        "miss_distance" : {
          "astronomical" : "0.0802742455",
          "lunar" : "31.226682663",
          "kilometers" : "12008856",
          "miles" : "7461957.5"
        },
        "orbiting_body" : "Earth"
      } ],
      "orbital_data" : {
        "orbit_id" : "68",
        "orbit_determination_date" : "2017-04-06 09:20:35",
        "orbit_uncertainty" : "0",
        "minimum_orbit_intersection" : ".00179697",
        "jupiter_tisserand_invariant" : "3.809",
        "epoch_osculation" : "2458000.5",
        "eccentricity" : ".5417730223241284",
        "semi_major_axis" : "1.854623266956932",
        "inclination" : ".3538737115975904",
        "ascending_node_longitude" : "27.86892083129185",
        "orbital_period" : "922.5331537629444",
        "perihelion_distance" : ".8498384143450262",
        "perihelion_argument" : "140.4731327646481",
        "aphelion_distance" : "2.859408119568838",
        "perihelion_time" : "2458012.756424055913",
        "mean_anomaly" : "355.2171771365275",
        "mean_motion" : ".3902298779524472",
        "equinox" : "J2000"
      }
    }, {
      "links" : {
        "self" : "https://api.nasa.gov/neo/rest/v1/neo/3102762?api_key=t0TVs3DtDT2H8Oy2Zy8m2eVrNsAVKAexjcZXUckd"
      },
      "neo_reference_id" : "3102762",
      "name" : "(2002 AA29)",
      "nasa_jpl_url" : "http://ssd.jpl.nasa.gov/sbdb.cgi?sstr=3102762",
      "absolute_magnitude_h" : 24.1,
      "estimated_diameter" : {
        "kilometers" : {
          "estimated_diameter_min" : 0.040230458,
          "estimated_diameter_max" : 0.0899580388
        },
        "meters" : {
          "estimated_diameter_min" : 40.2304579834,
          "estimated_diameter_max" : 89.9580388169
        },
        "miles" : {
          "estimated_diameter_min" : 0.0249980399,
          "estimated_diameter_max" : 0.0558973165
        },
        "feet" : {
          "estimated_diameter_min" : 131.9896957704,
          "estimated_diameter_max" : 295.1379320721
        }
      },
      "is_potentially_hazardous_asteroid" : false,
      "close_approach_data" : [ {
        "close_approach_date" : "2010-01-08",
        "epoch_date_close_approach" : 1262937600000,
        "relative_velocity" : {
          "kilometers_per_second" : "12.7831262883",
          "kilometers_per_hour" : "46019.2546378843",
          "miles_per_hour" : "28594.575194301"
        },
        "miss_distance" : {
          "astronomical" : "0.365828518",
          "lunar" : "142.3072967529",
          "kilometers" : "54727168",
          "miles" : "34005884"
        },
        "orbiting_body" : "Earth"
      } ],
      "orbital_data" : {
        "orbit_id" : "21",
        "orbit_determination_date" : "2017-04-06 09:15:33",
        "orbit_uncertainty" : "0",
        "minimum_orbit_intersection" : ".012946",
        "jupiter_tisserand_invariant" : "6.101",
        "epoch_osculation" : "2458000.5",
        "eccentricity" : ".01296125557883429",
        "semi_major_axis" : ".9925462692961411",
        "inclination" : "10.74760091756775",
        "ascending_node_longitude" : "106.3717237836368",
        "orbital_period" : "361.1807278371487",
        "perihelion_distance" : ".9796816234259753",
        "perihelion_argument" : "101.6388260670472",
        "aphelion_distance" : "1.005410915166307",
        "perihelion_time" : "2458172.580482216544",
        "mean_anomaly" : "188.4820622381388",
        "mean_motion" : ".9967309223716914",
        "equinox" : "J2000"
      }
    }, {
      "links" : {
        "self" : "https://api.nasa.gov/neo/rest/v1/neo/3532401?api_key=t0TVs3DtDT2H8Oy2Zy8m2eVrNsAVKAexjcZXUckd"
      },
      "neo_reference_id" : "3532401",
      "name" : "(2010 MS1)",
      "nasa_jpl_url" : "http://ssd.jpl.nasa.gov/sbdb.cgi?sstr=3532401",
      "absolute_magnitude_h" : 21.8,
      "estimated_diameter" : {
        "kilometers" : {
          "estimated_diameter_min" : 0.1160259082,
          "estimated_diameter_max" : 0.2594418179
        },
        "meters" : {
          "estimated_diameter_min" : 116.0259082094,
          "estimated_diameter_max" : 259.4418179074
        },
        "miles" : {
          "estimated_diameter_min" : 0.0720951346,
          "estimated_diameter_max" : 0.1612096218
        },
        "feet" : {
          "estimated_diameter_min" : 380.6624406898,
          "estimated_diameter_max" : 851.1870938635
        }
      },
      "is_potentially_hazardous_asteroid" : false,
      "close_approach_data" : [ {
        "close_approach_date" : "2010-01-08",
        "epoch_date_close_approach" : 1262937600000,
        "relative_velocity" : {
          "kilometers_per_second" : "11.3915944961",
          "kilometers_per_hour" : "41009.7401858131",
          "miles_per_hour" : "25481.8577282348"
        },
        "miss_distance" : {
          "astronomical" : "0.2960977498",
          "lunar" : "115.1820297241",
          "kilometers" : "44295596",
          "miles" : "27524006"
        },
        "orbiting_body" : "Earth"
      } ],
      "orbital_data" : {
        "orbit_id" : "10",
        "orbit_determination_date" : "2017-04-06 08:57:13",
        "orbit_uncertainty" : "5",
        "minimum_orbit_intersection" : ".106548",
        "jupiter_tisserand_invariant" : "6.399",
        "epoch_osculation" : "2458000.5",
        "eccentricity" : ".2685881574431705",
        "semi_major_axis" : ".9300255655347169",
        "inclination" : "9.033354626165425",
        "ascending_node_longitude" : "98.91498173044717",
        "orbital_period" : "327.5976347287144",
        "perihelion_distance" : ".6802317125127046",
        "perihelion_argument" : "349.9583328505873",
        "aphelion_distance" : "1.179819418556729",
        "perihelion_time" : "2458142.432877771473",
        "mean_anomaly" : "204.028678534132",
        "mean_motion" : "1.098909033021921",
        "equinox" : "J2000"
      }
    }, {
      "links" : {
        "self" : "https://api.nasa.gov/neo/rest/v1/neo/3711166?api_key=t0TVs3DtDT2H8Oy2Zy8m2eVrNsAVKAexjcZXUckd"
      },
      "neo_reference_id" : "3711166",
      "name" : "(2015 DY53)",
      "nasa_jpl_url" : "http://ssd.jpl.nasa.gov/sbdb.cgi?sstr=3711166",
      "absolute_magnitude_h" : 21.3,
      "estimated_diameter" : {
        "kilometers" : {
          "estimated_diameter_min" : 0.1460679643,
          "estimated_diameter_max" : 0.3266178974
        },
        "meters" : {
          "estimated_diameter_min" : 146.0679642714,
          "estimated_diameter_max" : 326.6178974458
        },
        "miles" : {
          "estimated_diameter_min" : 0.090762397,
          "estimated_diameter_max" : 0.2029508896
        },
        "feet" : {
          "estimated_diameter_min" : 479.2256199,
          "estimated_diameter_max" : 1071.581062656
        }
      },
      "is_potentially_hazardous_asteroid" : false,
      "close_approach_data" : [ {
        "close_approach_date" : "2010-01-08",
        "epoch_date_close_approach" : 1262937600000,
        "relative_velocity" : {
          "kilometers_per_second" : "15.7132756285",
          "kilometers_per_hour" : "56567.7922627116",
          "miles_per_hour" : "35149.026253461"
        },
        "miss_distance" : {
          "astronomical" : "0.27895052",
          "lunar" : "108.5117492676",
          "kilometers" : "41730404",
          "miles" : "25930070"
        },
        "orbiting_body" : "Earth"
      } ],
      "orbital_data" : {
        "orbit_id" : "9",
        "orbit_determination_date" : "2017-04-06 08:35:33",
        "orbit_uncertainty" : "6",
        "minimum_orbit_intersection" : ".139103",
        "jupiter_tisserand_invariant" : "5.373",
        "epoch_osculation" : "2458000.5",
        "eccentricity" : ".3125391374967957",
        "semi_major_axis" : "1.157247408243521",
        "inclination" : "12.03691888589304",
        "ascending_node_longitude" : "338.8824795797763",
        "orbital_period" : "454.7133994000135",
        "perihelion_distance" : ".7955623014006885",
        "perihelion_argument" : "34.03960648407536",
        "aphelion_distance" : "1.518932515086353",
        "perihelion_time" : "2457871.613727316127",
        "mean_anomaly" : "102.0402262775125",
        "mean_motion" : ".7917074809649635",
        "equinox" : "J2000"
      }
    } ]
  }
}